{"type": "FeatureCollection", "features": [ {"type": "Feature", "properties": {"norad_id": 33917, "name": "COSMOS 2251 DEB", "group": "cosmos-2251-debris", "lat": -73.04723921889344, "lon": 68.85280569910155, "alt_km": 805.9141293375778, "timestamp": "2025-12-03T04:52:30.031625+00:00", "meta": {"OBJECT_NAME": "COSMOS 2251 DEB", "OBJECT_ID": "1993-036DW", "EPOCH": "2025-12-02T13:29:54.929184", "MEAN_MOTION": 13.69333982, "ECCENTRICITY": 0.03310535, "INCLINATION": 74.1059, "RA_OF_ASC_NODE": 139.0802, "ARG_OF_PERICENTER": 242.275, "MEAN_ANOMALY": 114.4428, "EPHEMERIS_TYPE": 0, "CLASSIFICATION_TYPE": "U", "NORAD_CAT_ID": 33917, "ELEMENT_SET_NO": 999, "REV_AT_EPOCH": 83594, "BSTAR": 0.00093192166, "MEAN_MOTION_DOT": 1.165e-05, "MEAN_MOTION_DDOT": 0}, "tle": {"line1": "1 33917U 93036DW  25336.56244131  .00001165  00000+0  93192-3 0  9998", "line2": "2 33917  74.1059 139.0802 0331053 242.2750 114.4428 13.69333982835941"}}, "geometry": {"type": "Point", "coordinates": [68.85280569910155, -73.04723921889344]}}, {"type": "Feature", "properties": {"norad_id": 33920, "name": "COSMOS 2251 DEB", "group": "cosmos-2251-debris", "lat": -9.536279201485014, "lon": 139.29718208164573, "alt_km": 722.6268468252038, "timestamp": "2025-12-03T04:52:30.031636+00:00", "meta": {"OBJECT_NAME": "COSMOS 2251 DEB", "OBJECT_ID": "1993-036DZ", "EPOCH": "2025-12-02T04:56:58.153632", "MEAN_MOTION": 14.57956923, "ECCENTRICITY": 0.0038561, "INCLINATION": 74.0624, "RA_OF_ASC_NODE": 318.4379, "ARG_OF_PERICENTER": 326.615, "MEAN_ANOMALY": 33.2583, "EPHEMERIS_TYPE": 0, "CLASSIFICATION_TYPE": "U", "NORAD_CAT_ID": 33920, "ELEMENT_SET_NO": 999, "REV_AT_EPOCH": 87961, "BSTAR": 0.0024879, "MEAN_MOTION_DOT": 0.00011527, "MEAN_MOTION_DDOT": 0}, "tle": {"line1": "1 33920U 93036DZ  25336.20622863  .00011527  00000+0  24879-2 0  9993", "line2": "2 33920  74.0624 318.4379 0038561 326.6150  33.2583 14.57956923879619"}}, "geometry": {"type": "Point", "coordinates": [139.29718208164573, -9.536279201485014]}}, {"type": "Feature", "properties": {"norad_id": 33922, "name": "COSMOS 2251 DEB", "group": "cosmos-2251-debris", "lat": -73.99961447955395, "lon": 71.6826534928366, "alt_km": 718.0419771218785, "timestamp": "2025-12-03T04:52:30.031646+00:00", "meta": {"OBJECT_NAME": "COSMOS 2251 DEB", "OBJECT_ID": "1993-036EB", "EPOCH": "2025-12-02T14:41:25.761408", "MEAN_MOTION": 14.4945027, "ECCENTRICITY": 0.0023262, "INCLINATION": 74.0458, "RA_OF_ASC_NODE": 166.7515, "ARG_OF_PERICENTER": 278.4768, "MEAN_ANOMALY": 147.7592, "EPHEMERIS_TYPE": 0, "CLASSIFICATION_TYPE": "U", "NORAD_CAT_ID": 33922, "ELEMENT_SET_NO": 999, "REV_AT_EPOCH": 88431, "BSTAR": 0.00048117513, "MEAN_MOTION_DOT": 1.821e-05, "MEAN_MOTION_DDOT": 0}, "tle": {"line1": "1 33922U 93036EB  25336.61210372  .00001821  00000+0  48118-3 0  9997", "line2": "2 33922  74.0458 166.7515 0023262 278.4768 147.7592 14.49450270884312"}}, "geometry": {"type": "Point", "coordinates": [71.6826534928366, -73.99961447955395]}}, {"type": "Feature", "properties": {"norad_id": 33924, "name": "COSMOS 2251 DEB", "group": "cosmos-2251-debris", "lat": 6.886977509122054, "lon": -72.4719571969632, "alt_km": 853.0051183563637, "timestamp": "2025-12-03T04:52:30.031657+00:00", "meta": {"OBJECT_NAME": "COSMOS 2251 DEB", "OBJECT_ID": "1993-036ED", "EPOCH": "2025-12-02T19:57:03.805056", "MEAN_MOTION": 13.5019062, "ECCENTRICITY": 0.040407, "INCLINATION": 73.9131, "RA_OF_ASC_NODE": 286.1281, "ARG_OF_PERICENTER": 323.3225, "MEAN_ANOMALY": 34.0829, "EPHEMERIS_TYPE": 0, "CLASSIFICATION_TYPE": "U", "NORAD_CAT_ID": 33924, "ELEMENT_SET_NO": 999, "REV_AT_EPOCH": 82605, "BSTAR": 0.0015044, "MEAN_MOTION_DOT": 1.572e-05, "MEAN_MOTION_DDOT": 0}, "tle": {"line1": "1 33924U 93036ED  25336.83129404  .00001572  00000+0  15044-2 0  9992", "line2": "2 33924  73.9131 286.1281 0404070 323.3225  34.0829 13.50190620826054"}}, "geometry": {"type": "Point", "coordinates": [-72.4719571969632, 6.886977509122054]}}, {"type": "Feature", "properties": {"norad_id": 33928, "name": "COSMOS 2251 DEB", "group": "cosmos-2251-debris", "lat": -4.055574822771976, "lon": -108.3090412869996, "alt_km": 780.6919525355297, "timestamp": "2025-12-03T04:52:30.031667+00:00", "meta": {"OBJECT_NAME": "COSMOS 2251 DEB", "OBJECT_ID": "1993-036EH", "EPOCH": "2025-12-02T13:05:53.530080", "MEAN_MOTION": 14.47373014, "ECCENTRICITY": 0.0060969, "INCLINATION": 73.9259, "RA_OF_ASC_NODE": 71.7566, "ARG_OF_PERICENTER": 8.1306, "MEAN_ANOMALY": 352.0824, "EPHEMERIS_TYPE": 0, "CLASSIFICATION_TYPE": "U", "NORAD_CAT_ID": 33928, "ELEMENT_SET_NO": 999, "REV_AT_EPOCH": 88497, "BSTAR": 0.00032653116, "MEAN_MOTION_DOT": 1.196e-05, "MEAN_MOTION_DDOT": 0}, "tle": {"line1": "1 33928U 93036EH  25336.54575845  .00001196  00000+0  32653-3 0  9996", "line2": "2 33928  73.9259  71.7566 0060969   8.1306 352.0824 14.47373014884976"}}, "geometry": {"type": "Point", "coordinates": [-108.3090412869996, -4.055574822771976]}}, {"type": "Feature", "properties": {"norad_id": 33932, "name": "COSMOS 2251 DEB", "group": "cosmos-2251-debris", "lat": -70.33068603548232, "lon": -153.27196254788944, "alt_km": 792.0790777295324, "timestamp": "2025-12-03T04:52:30.031678+00:00", "meta": {"OBJECT_NAME": "COSMOS 2251 DEB", "OBJECT_ID": "1993-036EM", "EPOCH": "2025-12-02T17:39:56.201760", "MEAN_MOTION": 14.38710033, "ECCENTRICITY": 0.0034853, "INCLINATION": 74.0335, "RA_OF_ASC_NODE": 334.368, "ARG_OF_PERICENTER": 53.4964, "MEAN_ANOMALY": 306.9391, "EPHEMERIS_TYPE": 0, "CLASSIFICATION_TYPE": "U", "NORAD_CAT_ID": 33932, "ELEMENT_SET_NO": 999, "REV_AT_EPOCH": 87854, "BSTAR": 0.00057705, "MEAN_MOTION_DOT": 1.757e-05, "MEAN_MOTION_DDOT": 0}, "tle": {"line1": "1 33932U 93036EM  25336.73606715  .00001757  00000+0  57705-3 0  9991", "line2": "2 33932  74.0335 334.3680 0034853  53.4964 306.9391 14.38710033878548"}}, "geometry": {"type": "Point", "coordinates": [-153.27196254788944, -70.33068603548232]}}, {"type": "Feature", "properties": {"norad_id": 33933, "name": "COSMOS 2251 DEB", "group": "cosmos-2251-debris", "lat": -66.79419866335299, "lon": 35.80778215625952, "alt_km": 835.203041326803, "timestamp": "2025-12-03T04:52:30.031688+00:00", "meta": {"OBJECT_NAME": "COSMOS 2251 DEB", "OBJECT_ID": "1993-036EN", "EPOCH": "2025-12-02T17:29:32.962272", "MEAN_MOTION": 14.33460367, "ECCENTRICITY": 0.0070861, "INCLINATION": 74.0891, "RA_OF_ASC_NODE": 78.3806, "ARG_OF_PERICENTER": 89.804, "MEAN_ANOMALY": 271.1232, "EPHEMERIS_TYPE": 0, "CLASSIFICATION_TYPE": "U", "NORAD_CAT_ID": 33933, "ELEMENT_SET_NO": 999, "REV_AT_EPOCH": 87641, "BSTAR": 0.00043029, "MEAN_MOTION_DOT": 1.197e-05, "MEAN_MOTION_DDOT": 0}, "tle": {"line1": "1 33933U 93036EN  25336.72885373  .00001197  00000+0  43029-3 0  9992", "line2": "2 33933  74.0891  78.3806 0070861  89.8040 271.1232 14.33460367876416"}}, "geometry": {"type": "Point", "coordinates": [35.80778215625952, -66.79419866335299]}}, {"type": "Feature", "properties": {"norad_id": 33934, "name": "COSMOS 2251 DEB", "group": "cosmos-2251-debris", "lat": -62.35517590427726, "lon": -28.133768193150168, "alt_km": 692.0593476368431, "timestamp": "2025-12-03T04:52:30.031699+00:00", "meta": {"OBJECT_NAME": "COSMOS 2251 DEB", "OBJECT_ID": "1993-036EP", "EPOCH": "2025-12-02T19:31:00.975072", "MEAN_MOTION": 14.589573, "ECCENTRICITY": 0.0016025, "INCLINATION": 74.0364, "RA_OF_ASC_NODE": 119.4816, "ARG_OF_PERICENTER": 243.0046, "MEAN_ANOMALY": 116.9483, "EPHEMERIS_TYPE": 0, "CLASSIFICATION_TYPE": "U", "NORAD_CAT_ID": 33934, "ELEMENT_SET_NO": 999, "REV_AT_EPOCH": 88594, "BSTAR": 0.0013348, "MEAN_MOTION_DOT": 6.249e-05, "MEAN_MOTION_DDOT": 0}, "tle": {"line1": "1 33934U 93036EP  25336.81320573  .00006249  00000+0  13348-2 0  9992", "line2": "2 33934  74.0364 119.4816 0016025 243.0046 116.9483 14.58957300885949"}}, "geometry": {"type": "Point", "coordinates": [-28.133768193150168, -62.35517590427726]}}, {"type": "Feature", "properties": {"norad_id": 33936, "name": "COSMOS 2251 DEB", "group": "cosmos-2251-debris", "lat": 43.48363856448349, "lon": -140.06146748283965, "alt_km": 684.6246672418702, "timestamp": "2025-12-03T04:52:30.031709+00:00", "meta": {"OBJECT_NAME": "COSMOS 2251 DEB", "OBJECT_ID": "1993-036ER", "EPOCH": "2025-12-02T15:06:20.071008", "MEAN_MOTION": 14.60153925, "ECCENTRICITY": 0.00281797, "INCLINATION": 74.0194, "RA_OF_ASC_NODE": 56.8049, "ARG_OF_PERICENTER": 213.8734, "MEAN_ANOMALY": 146.0633, "EPHEMERIS_TYPE": 0, "CLASSIFICATION_TYPE": "U", "NORAD_CAT_ID": 33936, "ELEMENT_SET_NO": 999, "REV_AT_EPOCH": 88742, "BSTAR": 0.0010793335, "MEAN_MOTION_DOT": 5.2e-05, "MEAN_MOTION_DDOT": 0}, "tle": {"line1": "1 33936U 93036ER  25336.62939897  .00005200  00000+0  10793-2 0  9995", "line2": "2 33936  74.0194  56.8049 0028179 213.8734 146.0633 14.60153925887426"}}, "geometry": {"type": "Point", "coordinates": [-140.06146748283965, 43.48363856448349]}}, {"type": "Feature", "properties": {"norad_id": 33938, "name": "COSMOS 2251 DEB", "group": "cosmos-2251-debris", "lat": 74.03259802021044, "lon": -46.271283475384486, "alt_km": 738.2980126332077, "timestamp": "2025-12-03T04:52:30.031719+00:00", "meta": {"OBJECT_NAME": "COSMOS 2251 DEB", "OBJECT_ID": "1993-036ET", "EPOCH": "2025-12-02T18:48:41.607360", "MEAN_MOTION": 14.46741202, "ECCENTRICITY": 0.0016848, "INCLINATION": 74.0461, "RA_OF_ASC_NODE": 225.7625, "ARG_OF_PERICENTER": 308.7202, "MEAN_ANOMALY": 117.8216, "EPHEMERIS_TYPE": 0, "CLASSIFICATION_TYPE": "U", "NORAD_CAT_ID": 33938, "ELEMENT_SET_NO": 999, "REV_AT_EPOCH": 88256, "BSTAR": 0.00062812, "MEAN_MOTION_DOT": 2.25e-05, "MEAN_MOTION_DDOT": 0}, "tle": {"line1": "1 33938U 93036ET  25336.78381490  .00002250  00000+0  62812-3 0  9996", "line2": "2 33938  74.0461 225.7625 0016848 308.7202 117.8216 14.46741202882564"}}, "geometry": {"type": "Point", "coordinates": [-46.271283475384486, 74.03259802021044]}}]}